0 FENGYUN 1C DEB
1 35116U 99025DKU 13286.24684129  .00001522  00000-0  83840-3 0  1940
2 35116 099.0094 287.1151 0071825 126.0643 234.7209 14.11808468267495
0 FENGYUN 1C DEB
1 35116U 99025DKU 13295.45990618  .00002157  00000-0  11768-2 0  1951
2 35116 099.0089 296.3659 0071955 100.5294 260.3994 14.11844407268790
